[{"OBJECT_NAME":"STARLINK-4380","OBJECT_ID":"2022-105C","EPOCH":"2026-03-09T15:23:26.573856","MEAN_MOTION":15.01236314,"ECCENTRICITY":8.32e-5,"INCLINATION":97.6031,"RA_OF_ASC_NODE":310.1536,"ARG_OF_PERICENTER":108.7085,"MEAN_ANOMALY":251.423,"EPHEMERIS_TYPE":0,"CLASSIFICATION_TYPE":"U","NORAD_CAT_ID":53650,"ELEMENT_SET_NO":999,"REV_AT_EPOCH":19322,"BSTAR":0.00076256,"MEAN_MOTION_DOT":9.743e-5,"MEAN_MOTION_DDOT":0},{"OBJECT_NAME":"DELTA 1 DEB","OBJECT_ID":"1978-026DN","EPOCH":"2026-03-09T22:54:01.614240","MEAN_MOTION":14.93139428,"ECCENTRICITY":0.00397584,"INCLINATION":98.1052,"RA_OF_ASC_NODE":65.3894,"ARG_OF_PERICENTER":90.2844,"MEAN_ANOMALY":324.2277,"EPHEMERIS_TYPE":0,"CLASSIFICATION_TYPE":"U","NORAD_CAT_ID":12269,"ELEMENT_SET_NO":999,"REV_AT_EPOCH":37927,"BSTAR":0.0013156462,"MEAN_MOTION_DOT":0.00013895,"MEAN_MOTION_DDOT":0}]
